{
    "links": {
        "self": "http://www.neowsapp.com/rest/v1/neo/3730338?api_key=iIulBulltgU6a56xZRHN4H3l9WmuAYTsLGpBGhQ2"
    },
    "id": "3730338",
    "neo_reference_id": "3730338",
    "name": "(2015 TP178)",
    "designation": "2015 TP178",
    "nasa_jpl_url": "http://ssd.jpl.nasa.gov/sbdb.cgi?sstr=3730338",
    "absolute_magnitude_h": 23.6,
    "estimated_diameter": {
        "kilometers": {
            "estimated_diameter_min": 0.0506471459,
            "estimated_diameter_max": 0.1132504611
        },
        "meters": {
            "estimated_diameter_min": 50.6471458835,
            "estimated_diameter_max": 113.2504610618
        },
        "miles": {
            "estimated_diameter_min": 0.0314706677,
            "estimated_diameter_max": 0.0703705522
        },
        "feet": {
            "estimated_diameter_min": 166.1651821003,
            "estimated_diameter_max": 371.5566426699
        }
    },
    "is_potentially_hazardous_asteroid": false,
    "close_approach_data": [
        {
            "close_approach_date": "2015-10-08",
            "close_approach_date_full": "2015-Oct-08 15:07",
            "epoch_date_close_approach": 1444316820000,
            "relative_velocity": {
                "kilometers_per_second": "7.2906596949",
                "kilometers_per_hour": "26246.3749016784",
                "miles_per_hour": "16308.4766715457"
            },
            "miss_distance": {
                "astronomical": "0.3008422779",
                "lunar": "117.0276461031",
                "kilometers": "45005363.979788073",
                "miles": "27965036.4210704874"
            },
            "orbiting_body": "Earth"
        }
    ],
    "orbital_data": {
        "orbit_id": "3",
        "orbit_determination_date": "2017-04-06 17:20:28",
        "first_observation_date": "2015-10-10",
        "last_observation_date": "2015-10-14",
        "data_arc_in_days": 4,
        "observations_used": 12,
        "orbit_uncertainty": "9",
        "minimum_orbit_intersection": ".299008",
        "jupiter_tisserand_invariant": "2.900",
        "epoch_osculation": "2457307.5",
        "eccentricity": ".5831434098984647",
        "semi_major_axis": "3.113415587364152",
        "inclination": "12.09175642692112",
        "ascending_node_longitude": "15.88150985360284",
        "orbital_period": "2006.568868386179",
        "perihelion_distance": "1.297847805317589",
        "perihelion_argument": "1.262054943383318",
        "aphelion_distance": "4.928983369410715",
        "perihelion_time": "2457308.498402180527",
        "mean_anomaly": "359.8208759287296",
        "mean_motion": ".1794107372400015",
        "equinox": "J2000",
        "orbit_class": {
            "orbit_class_type": "AMO",
            "orbit_class_description": "Near-Earth asteroid orbits similar to that of 1221 Amor",
            "orbit_class_range": "1.017 AU < q (perihelion) < 1.3 AU"
        }
    },
    "is_sentry_object": false
}